0 THORAD AGENA D DEB
1 21721U 70025QG  13281.84301704  .00000613  00000-0  83878-3 0  5688
2 21721 100.1254 323.4399 0007044 094.0795 316.7574 13.63416303 92431
0 THORAD AGENA D DEB
1 21721U 70025QG  13283.39763779  .00000641  00000-0  87367-3 0  5693
2 21721 100.1253 325.0557 0006909 090.3706 027.1247 13.63419613 92644
0 THORAD AGENA D DEB
1 21721U 70025QG  13286.09434516  .00000670  00000-0  91120-3 0  5714
2 21721 100.1251 327.8590 0006627 083.7782 303.2598 13.63423218 93011
0 THORAD AGENA D DEB
1 21721U 70025QG  13287.36396313  .00000720  00000-0  97383-3 0  5721
2 21721 100.1248 329.1787 0006515 080.5904 054.9687 13.63424874 93183
0 THORAD AGENA D DEB
1 21721U 70025QG  13288.38806809  .00000883  00000-0  11810-2 0  5731
2 21721 100.1246 330.2432 0006417 077.8915 041.7527 13.63427329 93324
0 THORAD AGENA D DEB
1 21721U 70025QG  13289.56995508  .00000783  00000-0  10531-2 0  5746
2 21721 100.1244 331.4717 0006307 074.7005 083.0889 13.63429738 93488
0 THORAD AGENA D DEB
1 21721U 70025QG  13290.59632370  .00000792  00000-0  10654-2 0  5753
2 21721 100.1243 332.5385 0006206 071.9204 081.0748 13.63431357 93626
0 THORAD AGENA D DEB
1 21721U 70025QG  13293.67236392  .00000825  00000-0  11066-2 0  5765
2 21721 100.1244 335.7353 0005945 063.2134 060.3988 13.63436220 94049
0 THORAD AGENA D DEB
1 21721U 70025QG  13295.34748964  .00000843  00000-0  11290-2 0  5774
2 21721 100.1244 337.4762 0005806 058.3032 003.2630 13.63439616 94277
